{
  "type": "FeatureCollection",
  "features": [
    {
      "type": "Feature",
      "geometry": {
        "type": "Polygon",
        "coordinates": [
          [
            [
              80.235,
              13.052
            ],
            [
              80.244,
              13.052
            ],
            [
              80.244,
              13.06
            ],
            [
              80.235,
              13.06
            ],
            [
              80.235,
              13.052
            ]
          ]
        ]
      },
      "properties": {
        "kind": "institution",
        "name": "Demo civic precinct",
        "classification": "SIMULATED",
        "label": "Illustrative local basemap context"
      }
    },
    {
      "type": "Feature",
      "geometry": {
        "type": "Polygon",
        "coordinates": [
          [
            [
              80.244,
              13.052
            ],
            [
              80.257,
              13.052
            ],
            [
              80.257,
              13.06
            ],
            [
              80.244,
              13.06
            ],
            [
              80.244,
              13.052
            ]
          ]
        ]
      },
      "properties": {
        "kind": "residential",
        "name": "Demo north residential blocks",
        "classification": "SIMULATED",
        "label": "Illustrative local basemap context"
      }
    },
    {
      "type": "Feature",
      "geometry": {
        "type": "Polygon",
        "coordinates": [
          [
            [
              80.257,
              13.052
            ],
            [
              80.265,
              13.052
            ],
            [
              80.265,
              13.06
            ],
            [
              80.257,
              13.06
            ],
            [
              80.257,
              13.052
            ]
          ]
        ]
      },
      "properties": {
        "kind": "open_space",
        "name": "Demo open ground",
        "classification": "SIMULATED",
        "label": "Illustrative local basemap context"
      }
    },
    {
      "type": "Feature",
      "geometry": {
        "type": "Polygon",
        "coordinates": [
          [
            [
              80.235,
              13.043
            ],
            [
              80.246,
              13.043
            ],
            [
              80.246,
              13.052
            ],
            [
              80.235,
              13.052
            ],
            [
              80.235,
              13.043
            ]
          ]
        ]
      },
      "properties": {
        "kind": "residential",
        "name": "Demo west residential blocks",
        "classification": "SIMULATED",
        "label": "Illustrative local basemap context"
      }
    },
    {
      "type": "Feature",
      "geometry": {
        "type": "Polygon",
        "coordinates": [
          [
            [
              80.246,
              13.041
            ],
            [
              80.257,
              13.041
            ],
            [
              80.257,
              13.052
            ],
            [
              80.246,
              13.052
            ],
            [
              80.246,
              13.041
            ]
          ]
        ]
      },
      "properties": {
        "kind": "commercial",
        "name": "Demo market frontage",
        "classification": "SIMULATED",
        "label": "Illustrative local basemap context"
      }
    },
    {
      "type": "Feature",
      "geometry": {
        "type": "Polygon",
        "coordinates": [
          [
            [
              80.257,
              13.041
            ],
            [
              80.265,
              13.041
            ],
            [
              80.265,
              13.052
            ],
            [
              80.257,
              13.052
            ],
            [
              80.257,
              13.041
            ]
          ]
        ]
      },
      "properties": {
        "kind": "residential",
        "name": "Demo east mixed-use blocks",
        "classification": "SIMULATED",
        "label": "Illustrative local basemap context"
      }
    },
    {
      "type": "Feature",
      "geometry": {
        "type": "Polygon",
        "coordinates": [
          [
            [
              80.235,
              13.03
            ],
            [
              80.247,
              13.03
            ],
            [
              80.247,
              13.043
            ],
            [
              80.235,
              13.043
            ],
            [
              80.235,
              13.03
            ]
          ]
        ]
      },
      "properties": {
        "kind": "residential",
        "name": "Demo south-west neighborhood",
        "classification": "SIMULATED",
        "label": "Illustrative local basemap context"
      }
    },
    {
      "type": "Feature",
      "geometry": {
        "type": "Polygon",
        "coordinates": [
          [
            [
              80.247,
              13.03
            ],
            [
              80.258,
              13.03
            ],
            [
              80.258,
              13.041
            ],
            [
              80.247,
              13.041
            ],
            [
              80.247,
              13.03
            ]
          ]
        ]
      },
      "properties": {
        "kind": "institution",
        "name": "Demo response staging area",
        "classification": "SIMULATED",
        "label": "Illustrative local basemap context"
      }
    },
    {
      "type": "Feature",
      "geometry": {
        "type": "Polygon",
        "coordinates": [
          [
            [
              80.258,
              13.03
            ],
            [
              80.265,
              13.03
            ],
            [
              80.265,
              13.041
            ],
            [
              80.258,
              13.041
            ],
            [
              80.258,
              13.03
            ]
          ]
        ]
      },
      "properties": {
        "kind": "water",
        "name": "Demo canal-side low strip",
        "classification": "SIMULATED",
        "label": "Illustrative local basemap context"
      }
    },
    {
      "type": "Feature",
      "geometry": {
        "type": "Polygon",
        "coordinates": [
          [
            [
              80.261,
              13.03
            ],
            [
              80.265,
              13.03
            ],
            [
              80.265,
              13.06
            ],
            [
              80.262,
              13.06
            ],
            [
              80.261,
              13.03
            ]
          ]
        ]
      },
      "properties": {
        "kind": "water",
        "name": "Illustrative canal context",
        "classification": "SIMULATED",
        "label": "Illustrative local basemap context"
      }
    },
    {
      "type": "Feature",
      "geometry": {
        "type": "Polygon",
        "coordinates": [
          [
            [
              80.239,
              13.036
            ],
            [
              80.243,
              13.036
            ],
            [
              80.243,
              13.04
            ],
            [
              80.239,
              13.04
            ],
            [
              80.239,
              13.036
            ]
          ]
        ]
      },
      "properties": {
        "kind": "open_space",
        "name": "Demo neighborhood park",
        "classification": "SIMULATED",
        "label": "Illustrative local basemap context"
      }
    },
    {
      "type": "Feature",
      "geometry": {
        "type": "LineString",
        "coordinates": [
          [
            80.236,
            13.049
          ],
          [
            80.245,
            13.047
          ],
          [
            80.254,
            13.046
          ],
          [
            80.264,
            13.044
          ]
        ]
      },
      "properties": {
        "kind": "arterial",
        "name": "Demo arterial corridor",
        "classification": "SIMULATED",
        "label": "Illustrative local basemap context"
      }
    },
    {
      "type": "Feature",
      "geometry": {
        "type": "LineString",
        "coordinates": [
          [
            80.241,
            13.058
          ],
          [
            80.249,
            13.051
          ],
          [
            80.257,
            13.043
          ],
          [
            80.263,
            13.035
          ]
        ]
      },
      "properties": {
        "kind": "rail",
        "name": "Demo transit corridor",
        "classification": "SIMULATED",
        "label": "Illustrative local basemap context"
      }
    }
  ]
}