{
  "type": "FeatureCollection",
  "features": [
    {
      "type": "Feature",
      "geometry": {
        "type": "LineString",
        "coordinates": [
          [
            80.238,
            13.033
          ],
          [
            80.244,
            13.033
          ]
        ]
      },
      "properties": {
        "road_id": "road-01",
        "name": "Demo Street 01",
        "classification": "SIMULATED",
        "label": "Demo road network",
        "cell_ids": [
          "cell-r0-c0",
          "cell-r0-c1"
        ]
      }
    },
    {
      "type": "Feature",
      "geometry": {
        "type": "LineString",
        "coordinates": [
          [
            80.244,
            13.033
          ],
          [
            80.25,
            13.033
          ]
        ]
      },
      "properties": {
        "road_id": "road-02",
        "name": "Demo Street 02",
        "classification": "SIMULATED",
        "label": "Demo road network",
        "cell_ids": [
          "cell-r0-c1",
          "cell-r0-c2",
          "cell-r0-c3"
        ]
      }
    },
    {
      "type": "Feature",
      "geometry": {
        "type": "LineString",
        "coordinates": [
          [
            80.25,
            13.033
          ],
          [
            80.256,
            13.033
          ]
        ]
      },
      "properties": {
        "road_id": "road-03",
        "name": "Demo Street 03",
        "classification": "SIMULATED",
        "label": "Demo road network",
        "cell_ids": [
          "cell-r0-c3",
          "cell-r0-c4"
        ]
      }
    },
    {
      "type": "Feature",
      "geometry": {
        "type": "LineString",
        "coordinates": [
          [
            80.256,
            13.033
          ],
          [
            80.262,
            13.033
          ]
        ]
      },
      "properties": {
        "road_id": "road-04",
        "name": "Demo Street 04",
        "classification": "SIMULATED",
        "label": "Demo road network",
        "cell_ids": [
          "cell-r0-c4",
          "cell-r0-c5"
        ]
      }
    },
    {
      "type": "Feature",
      "geometry": {
        "type": "LineString",
        "coordinates": [
          [
            80.238,
            13.045
          ],
          [
            80.244,
            13.045
          ]
        ]
      },
      "properties": {
        "road_id": "road-05",
        "name": "Demo Street 05",
        "classification": "SIMULATED",
        "label": "Demo road network",
        "cell_ids": [
          "cell-r3-c0",
          "cell-r3-c1"
        ]
      }
    },
    {
      "type": "Feature",
      "geometry": {
        "type": "LineString",
        "coordinates": [
          [
            80.244,
            13.045
          ],
          [
            80.25,
            13.045
          ]
        ]
      },
      "properties": {
        "road_id": "road-06",
        "name": "Demo Street 06",
        "classification": "SIMULATED",
        "label": "Demo road network",
        "cell_ids": [
          "cell-r3-c1",
          "cell-r3-c2",
          "cell-r3-c3"
        ]
      }
    },
    {
      "type": "Feature",
      "geometry": {
        "type": "LineString",
        "coordinates": [
          [
            80.25,
            13.045
          ],
          [
            80.256,
            13.045
          ]
        ]
      },
      "properties": {
        "road_id": "road-07",
        "name": "Demo Street 07",
        "classification": "SIMULATED",
        "label": "Demo road network",
        "cell_ids": [
          "cell-r3-c3",
          "cell-r3-c4"
        ]
      }
    },
    {
      "type": "Feature",
      "geometry": {
        "type": "LineString",
        "coordinates": [
          [
            80.256,
            13.045
          ],
          [
            80.262,
            13.045
          ]
        ]
      },
      "properties": {
        "road_id": "road-08",
        "name": "Demo Street 08",
        "classification": "SIMULATED",
        "label": "Demo road network",
        "cell_ids": [
          "cell-r3-c4",
          "cell-r3-c5"
        ]
      }
    },
    {
      "type": "Feature",
      "geometry": {
        "type": "LineString",
        "coordinates": [
          [
            80.238,
            13.057
          ],
          [
            80.244,
            13.057
          ]
        ]
      },
      "properties": {
        "road_id": "road-09",
        "name": "Demo Street 09",
        "classification": "SIMULATED",
        "label": "Demo road network",
        "cell_ids": [
          "cell-r5-c0",
          "cell-r5-c1"
        ]
      }
    },
    {
      "type": "Feature",
      "geometry": {
        "type": "LineString",
        "coordinates": [
          [
            80.244,
            13.057
          ],
          [
            80.25,
            13.057
          ]
        ]
      },
      "properties": {
        "road_id": "road-10",
        "name": "Demo Street 10",
        "classification": "SIMULATED",
        "label": "Demo road network",
        "cell_ids": [
          "cell-r5-c1",
          "cell-r5-c2",
          "cell-r5-c3"
        ]
      }
    },
    {
      "type": "Feature",
      "geometry": {
        "type": "LineString",
        "coordinates": [
          [
            80.25,
            13.057
          ],
          [
            80.256,
            13.057
          ]
        ]
      },
      "properties": {
        "road_id": "road-11",
        "name": "Demo Street 11",
        "classification": "SIMULATED",
        "label": "Demo road network",
        "cell_ids": [
          "cell-r5-c3",
          "cell-r5-c4"
        ]
      }
    },
    {
      "type": "Feature",
      "geometry": {
        "type": "LineString",
        "coordinates": [
          [
            80.256,
            13.057
          ],
          [
            80.262,
            13.057
          ]
        ]
      },
      "properties": {
        "road_id": "road-12",
        "name": "Demo Street 12",
        "classification": "SIMULATED",
        "label": "Demo road network",
        "cell_ids": [
          "cell-r5-c4",
          "cell-r5-c5"
        ]
      }
    },
    {
      "type": "Feature",
      "geometry": {
        "type": "LineString",
        "coordinates": [
          [
            80.238,
            13.033
          ],
          [
            80.238,
            13.039
          ]
        ]
      },
      "properties": {
        "road_id": "road-13",
        "name": "Demo Street 13",
        "classification": "SIMULATED",
        "label": "Demo road network",
        "cell_ids": [
          "cell-r0-c0",
          "cell-r1-c0"
        ]
      }
    },
    {
      "type": "Feature",
      "geometry": {
        "type": "LineString",
        "coordinates": [
          [
            80.238,
            13.039
          ],
          [
            80.238,
            13.045
          ]
        ]
      },
      "properties": {
        "road_id": "road-14",
        "name": "Demo Street 14",
        "classification": "SIMULATED",
        "label": "Demo road network",
        "cell_ids": [
          "cell-r1-c0",
          "cell-r2-c0",
          "cell-r3-c0"
        ]
      }
    },
    {
      "type": "Feature",
      "geometry": {
        "type": "LineString",
        "coordinates": [
          [
            80.238,
            13.045
          ],
          [
            80.238,
            13.051
          ]
        ]
      },
      "properties": {
        "road_id": "road-15",
        "name": "Demo Street 15",
        "classification": "SIMULATED",
        "label": "Demo road network",
        "cell_ids": [
          "cell-r3-c0",
          "cell-r4-c0"
        ]
      }
    },
    {
      "type": "Feature",
      "geometry": {
        "type": "LineString",
        "coordinates": [
          [
            80.238,
            13.051
          ],
          [
            80.238,
            13.057
          ]
        ]
      },
      "properties": {
        "road_id": "road-16",
        "name": "Demo Street 16",
        "classification": "SIMULATED",
        "label": "Demo road network",
        "cell_ids": [
          "cell-r4-c0",
          "cell-r5-c0"
        ]
      }
    },
    {
      "type": "Feature",
      "geometry": {
        "type": "LineString",
        "coordinates": [
          [
            80.244,
            13.033
          ],
          [
            80.244,
            13.039
          ]
        ]
      },
      "properties": {
        "road_id": "road-17",
        "name": "Demo Street 17",
        "classification": "SIMULATED",
        "label": "Demo road network",
        "cell_ids": [
          "cell-r0-c1",
          "cell-r1-c1"
        ]
      }
    },
    {
      "type": "Feature",
      "geometry": {
        "type": "LineString",
        "coordinates": [
          [
            80.244,
            13.039
          ],
          [
            80.244,
            13.045
          ]
        ]
      },
      "properties": {
        "road_id": "road-18",
        "name": "Demo Street 18",
        "classification": "SIMULATED",
        "label": "Demo road network",
        "cell_ids": [
          "cell-r1-c1",
          "cell-r2-c1",
          "cell-r3-c1"
        ]
      }
    },
    {
      "type": "Feature",
      "geometry": {
        "type": "LineString",
        "coordinates": [
          [
            80.244,
            13.045
          ],
          [
            80.244,
            13.051
          ]
        ]
      },
      "properties": {
        "road_id": "road-19",
        "name": "Demo Street 19",
        "classification": "SIMULATED",
        "label": "Demo road network",
        "cell_ids": [
          "cell-r3-c1",
          "cell-r4-c1"
        ]
      }
    },
    {
      "type": "Feature",
      "geometry": {
        "type": "LineString",
        "coordinates": [
          [
            80.244,
            13.051
          ],
          [
            80.244,
            13.057
          ]
        ]
      },
      "properties": {
        "road_id": "road-20",
        "name": "Demo Street 20",
        "classification": "SIMULATED",
        "label": "Demo road network",
        "cell_ids": [
          "cell-r4-c1",
          "cell-r5-c1"
        ]
      }
    },
    {
      "type": "Feature",
      "geometry": {
        "type": "LineString",
        "coordinates": [
          [
            80.25,
            13.033
          ],
          [
            80.25,
            13.039
          ]
        ]
      },
      "properties": {
        "road_id": "road-21",
        "name": "Demo Street 21",
        "classification": "SIMULATED",
        "label": "Demo road network",
        "cell_ids": [
          "cell-r0-c3",
          "cell-r1-c3"
        ]
      }
    },
    {
      "type": "Feature",
      "geometry": {
        "type": "LineString",
        "coordinates": [
          [
            80.25,
            13.039
          ],
          [
            80.25,
            13.045
          ]
        ]
      },
      "properties": {
        "road_id": "road-22",
        "name": "Demo Street 22",
        "classification": "SIMULATED",
        "label": "Demo road network",
        "cell_ids": [
          "cell-r1-c3",
          "cell-r2-c3",
          "cell-r3-c3"
        ]
      }
    },
    {
      "type": "Feature",
      "geometry": {
        "type": "LineString",
        "coordinates": [
          [
            80.25,
            13.045
          ],
          [
            80.25,
            13.051
          ]
        ]
      },
      "properties": {
        "road_id": "road-23",
        "name": "Demo Street 23",
        "classification": "SIMULATED",
        "label": "Demo road network",
        "cell_ids": [
          "cell-r3-c3",
          "cell-r4-c3"
        ]
      }
    },
    {
      "type": "Feature",
      "geometry": {
        "type": "LineString",
        "coordinates": [
          [
            80.25,
            13.051
          ],
          [
            80.25,
            13.057
          ]
        ]
      },
      "properties": {
        "road_id": "road-24",
        "name": "Demo Street 24",
        "classification": "SIMULATED",
        "label": "Demo road network",
        "cell_ids": [
          "cell-r4-c3",
          "cell-r5-c3"
        ]
      }
    },
    {
      "type": "Feature",
      "geometry": {
        "type": "LineString",
        "coordinates": [
          [
            80.262,
            13.033
          ],
          [
            80.262,
            13.039
          ]
        ]
      },
      "properties": {
        "road_id": "road-25",
        "name": "Demo Street 25",
        "classification": "SIMULATED",
        "label": "Demo road network",
        "cell_ids": [
          "cell-r0-c5",
          "cell-r1-c5"
        ]
      }
    },
    {
      "type": "Feature",
      "geometry": {
        "type": "LineString",
        "coordinates": [
          [
            80.262,
            13.039
          ],
          [
            80.262,
            13.045
          ]
        ]
      },
      "properties": {
        "road_id": "road-26",
        "name": "Demo Street 26",
        "classification": "SIMULATED",
        "label": "Demo road network",
        "cell_ids": [
          "cell-r1-c5",
          "cell-r2-c5",
          "cell-r3-c5"
        ]
      }
    },
    {
      "type": "Feature",
      "geometry": {
        "type": "LineString",
        "coordinates": [
          [
            80.262,
            13.045
          ],
          [
            80.262,
            13.051
          ]
        ]
      },
      "properties": {
        "road_id": "road-27",
        "name": "Demo Street 27",
        "classification": "SIMULATED",
        "label": "Demo road network",
        "cell_ids": [
          "cell-r3-c5",
          "cell-r4-c5"
        ]
      }
    },
    {
      "type": "Feature",
      "geometry": {
        "type": "LineString",
        "coordinates": [
          [
            80.262,
            13.051
          ],
          [
            80.262,
            13.057
          ]
        ]
      },
      "properties": {
        "road_id": "road-28",
        "name": "Demo Street 28",
        "classification": "SIMULATED",
        "label": "Demo road network",
        "cell_ids": [
          "cell-r4-c5",
          "cell-r5-c5"
        ]
      }
    }
  ]
}